{"type": "FeatureCollection", "features": [ {"type": "Feature", "properties": {"norad_id": 34014, "name": "COSMOS 2251 DEB", "group": "cosmos-2251-debris", "lat": -16.25245990904098, "lon": -106.5112248963246, "alt_km": 638.7201655679319, "timestamp": "2025-12-24T05:51:20.002886+00:00", "meta": {"OBJECT_NAME": "COSMOS 2251 DEB", "OBJECT_ID": "1993-036GZ", "EPOCH": "2025-12-23T04:24:15.434208", "MEAN_MOTION": 14.73254198, "ECCENTRICITY": 0.00374882, "INCLINATION": 74.017, "RA_OF_ASC_NODE": 260.3499, "ARG_OF_PERICENTER": 37.0908, "MEAN_ANOMALY": 84.3191, "EPHEMERIS_TYPE": 0, "CLASSIFICATION_TYPE": "U", "NORAD_CAT_ID": 34014, "ELEMENT_SET_NO": 999, "REV_AT_EPOCH": 89457, "BSTAR": 0.00092045815, "MEAN_MOTION_DOT": 5.986e-05, "MEAN_MOTION_DDOT": 0}, "tle": {"line1": "1 34014U 93036GZ  25357.18351197  .00005986  00000+0  92046-3 0  9991", "line2": "2 34014  74.0170 260.3499 0037488  37.0908  84.3191 14.73254198894576"}}, "geometry": {"type": "Point", "coordinates": [-106.5112248963246, -16.25245990904098]}}, {"type": "Feature", "properties": {"norad_id": 34015, "name": "COSMOS 2251 DEB", "group": "cosmos-2251-debris", "lat": -66.89086269611239, "lon": 95.27634107353292, "alt_km": 689.859358372797, "timestamp": "2025-12-24T05:51:20.002896+00:00", "meta": {"OBJECT_NAME": "COSMOS 2251 DEB", "OBJECT_ID": "1993-036HA", "EPOCH": "2025-12-23T10:44:27.072384", "MEAN_MOTION": 14.6037638, "ECCENTRICITY": 0.00209622, "INCLINATION": 74.0244, "RA_OF_ASC_NODE": 138.9674, "ARG_OF_PERICENTER": 235.7756, "MEAN_ANOMALY": 185.4899, "EPHEMERIS_TYPE": 0, "CLASSIFICATION_TYPE": "U", "NORAD_CAT_ID": 34015, "ELEMENT_SET_NO": 999, "REV_AT_EPOCH": 88687, "BSTAR": 0.0012018197, "MEAN_MOTION_DOT": 5.808e-05, "MEAN_MOTION_DDOT": 0}, "tle": {"line1": "1 34015U 93036HA  25357.44753556  .00005808  00000+0  12018-2 0  9999", "line2": "2 34015  74.0244 138.9674 0020962 235.7756 185.4899 14.60376380886877"}}, "geometry": {"type": "Point", "coordinates": [95.27634107353292, -66.89086269611239]}}, {"type": "Feature", "properties": {"norad_id": 34018, "name": "COSMOS 2251 DEB", "group": "cosmos-2251-debris", "lat": 26.1664691312345, "lon": 80.77088995463829, "alt_km": 916.5079039692755, "timestamp": "2025-12-24T05:51:20.002906+00:00", "meta": {"OBJECT_NAME": "COSMOS 2251 DEB", "OBJECT_ID": "1993-036HD", "EPOCH": "2025-12-23T23:37:00.998112", "MEAN_MOTION": 13.81084077, "ECCENTRICITY": 0.02631627, "INCLINATION": 73.878, "RA_OF_ASC_NODE": 73.0414, "ARG_OF_PERICENTER": 106.7681, "MEAN_ANOMALY": 71.6819, "EPHEMERIS_TYPE": 0, "CLASSIFICATION_TYPE": "U", "NORAD_CAT_ID": 34018, "ELEMENT_SET_NO": 999, "REV_AT_EPOCH": 84812, "BSTAR": 0.00035007625, "MEAN_MOTION_DOT": 4.6e-06, "MEAN_MOTION_DDOT": 0}, "tle": {"line1": "1 34018U 93036HD  25357.98403933  .00000460  00000+0  35008-3 0  9996", "line2": "2 34018  73.8780  73.0414 0263162 106.7681  71.6819 13.81084077848123"}}, "geometry": {"type": "Point", "coordinates": [80.77088995463829, 26.1664691312345]}}, {"type": "Feature", "properties": {"norad_id": 34019, "name": "COSMOS 2251 DEB", "group": "cosmos-2251-debris", "lat": -3.3042214299577126, "lon": -149.46538756859263, "alt_km": 741.2733199033573, "timestamp": "2025-12-24T05:51:20.002916+00:00", "meta": {"OBJECT_NAME": "COSMOS 2251 DEB", "OBJECT_ID": "1993-036HE", "EPOCH": "2025-12-23T19:29:39.156000", "MEAN_MOTION": 14.33983432, "ECCENTRICITY": 0.00622458, "INCLINATION": 73.9533, "RA_OF_ASC_NODE": 30.3762, "ARG_OF_PERICENTER": 209.9239, "MEAN_ANOMALY": 265.895, "EPHEMERIS_TYPE": 0, "CLASSIFICATION_TYPE": "U", "NORAD_CAT_ID": 34019, "ELEMENT_SET_NO": 999, "REV_AT_EPOCH": 87679, "BSTAR": 0.00065072511, "MEAN_MOTION_DOT": 1.83e-05, "MEAN_MOTION_DDOT": 0}, "tle": {"line1": "1 34019U 93036HE  25357.81225875  .00001830  00000+0  65073-3 0  9993", "line2": "2 34019  73.9533  30.3762 0062245 209.9239 265.8950 14.33983432876795"}}, "geometry": {"type": "Point", "coordinates": [-149.46538756859263, -3.3042214299577126]}}, {"type": "Feature", "properties": {"norad_id": 34021, "name": "COSMOS 2251 DEB", "group": "cosmos-2251-debris", "lat": -42.70850391088548, "lon": -56.450961591646994, "alt_km": 718.6066636210417, "timestamp": "2025-12-24T05:51:20.002925+00:00", "meta": {"OBJECT_NAME": "COSMOS 2251 DEB", "OBJECT_ID": "1993-036HG", "EPOCH": "2025-12-23T17:58:42.612384", "MEAN_MOTION": 14.49985272, "ECCENTRICITY": 0.00209835, "INCLINATION": 74.0361, "RA_OF_ASC_NODE": 109.1571, "ARG_OF_PERICENTER": 252.1914, "MEAN_ANOMALY": 270.516, "EPHEMERIS_TYPE": 0, "CLASSIFICATION_TYPE": "U", "NORAD_CAT_ID": 34021, "ELEMENT_SET_NO": 999, "REV_AT_EPOCH": 88789, "BSTAR": 0.00043068209, "MEAN_MOTION_DOT": 1.644e-05, "MEAN_MOTION_DDOT": 0}, "tle": {"line1": "1 34021U 93036HG  25357.74910431  .00001644  00000+0  43068-3 0  9990", "line2": "2 34021  74.0361 109.1571 0020983 252.1914 270.5160 14.49985272887895"}}, "geometry": {"type": "Point", "coordinates": [-56.450961591646994, -42.70850391088548]}}, {"type": "Feature", "properties": {"norad_id": 34022, "name": "COSMOS 2251 DEB", "group": "cosmos-2251-debris", "lat": -51.02538527168522, "lon": -131.09681492015054, "alt_km": 752.1061070625601, "timestamp": "2025-12-24T05:51:20.002935+00:00", "meta": {"OBJECT_NAME": "COSMOS 2251 DEB", "OBJECT_ID": "1993-036HH", "EPOCH": "2025-12-23T10:54:23.717088", "MEAN_MOTION": 14.38977964, "ECCENTRICITY": 0.0023032, "INCLINATION": 74.0538, "RA_OF_ASC_NODE": 251.0526, "ARG_OF_PERICENTER": 314.3113, "MEAN_ANOMALY": 223.4132, "EPHEMERIS_TYPE": 0, "CLASSIFICATION_TYPE": "U", "NORAD_CAT_ID": 34022, "ELEMENT_SET_NO": 999, "REV_AT_EPOCH": 88349, "BSTAR": 0.00018928897, "MEAN_MOTION_DOT": 5.59e-06, "MEAN_MOTION_DDOT": 0}, "tle": {"line1": "1 34022U 93036HH  25357.45444117  .00000559  00000+0  18929-3 0  9994", "line2": "2 34022  74.0538 251.0526 0023032 314.3113 223.4132 14.38977964883494"}}, "geometry": {"type": "Point", "coordinates": [-131.09681492015054, -51.02538527168522]}}, {"type": "Feature", "properties": {"norad_id": 34023, "name": "COSMOS 2251 DEB", "group": "cosmos-2251-debris", "lat": -63.28625820303121, "lon": -164.24440323335875, "alt_km": 752.0805585018034, "timestamp": "2025-12-24T05:51:20.002945+00:00", "meta": {"OBJECT_NAME": "COSMOS 2251 DEB", "OBJECT_ID": "1993-036HJ", "EPOCH": "2025-12-23T02:23:26.644416", "MEAN_MOTION": 14.40580637, "ECCENTRICITY": 0.00188454, "INCLINATION": 74.0241, "RA_OF_ASC_NODE": 232.571, "ARG_OF_PERICENTER": 326.7296, "MEAN_ANOMALY": 152.7209, "EPHEMERIS_TYPE": 0, "CLASSIFICATION_TYPE": "U", "NORAD_CAT_ID": 34023, "ELEMENT_SET_NO": 999, "REV_AT_EPOCH": 88363, "BSTAR": 0.0002558496, "MEAN_MOTION_DOT": 7.9e-06, "MEAN_MOTION_DDOT": 0}, "tle": {"line1": "1 34023U 93036HJ  25357.09961394  .00000790  00000+0  25585-3 0  9999", "line2": "2 34023  74.0241 232.5710 0018845 326.7296 152.7209 14.40580637883635"}}, "geometry": {"type": "Point", "coordinates": [-164.24440323335875, -63.28625820303121]}}, {"type": "Feature", "properties": {"norad_id": 34024, "name": "COSMOS 2251 DEB", "group": "cosmos-2251-debris", "lat": 73.8602111874599, "lon": 16.187643423974336, "alt_km": 770.1039117175023, "timestamp": "2025-12-24T05:51:20.002955+00:00", "meta": {"OBJECT_NAME": "COSMOS 2251 DEB", "OBJECT_ID": "1993-036HK", "EPOCH": "2025-12-23T23:04:42.657312", "MEAN_MOTION": 14.35408203, "ECCENTRICITY": 0.00215253, "INCLINATION": 74.047, "RA_OF_ASC_NODE": 295.425, "ARG_OF_PERICENTER": 343.7425, "MEAN_ANOMALY": 85.0214, "EPHEMERIS_TYPE": 0, "CLASSIFICATION_TYPE": "U", "NORAD_CAT_ID": 34024, "ELEMENT_SET_NO": 999, "REV_AT_EPOCH": 88185, "BSTAR": 0.0001856404, "MEAN_MOTION_DOT": 5.08e-06, "MEAN_MOTION_DDOT": 0}, "tle": {"line1": "1 34024U 93036HK  25357.96160483  .00000508  00000+0  18564-3 0  9992", "line2": "2 34024  74.0470 295.4250 0021525 343.7425  85.0214 14.35408203881857"}}, "geometry": {"type": "Point", "coordinates": [16.187643423974336, 73.8602111874599]}}, {"type": "Feature", "properties": {"norad_id": 34026, "name": "COSMOS 2251 DEB", "group": "cosmos-2251-debris", "lat": -40.6550039244575, "lon": -56.33381724887953, "alt_km": 1186.7367860791337, "timestamp": "2025-12-24T05:51:20.002965+00:00", "meta": {"OBJECT_NAME": "COSMOS 2251 DEB", "OBJECT_ID": "1993-036HM", "EPOCH": "2025-12-23T23:20:50.343360", "MEAN_MOTION": 13.65321922, "ECCENTRICITY": 0.03496578, "INCLINATION": 73.7667, "RA_OF_ASC_NODE": 318.6056, "ARG_OF_PERICENTER": 186.8963, "MEAN_ANOMALY": 234.9942, "EPHEMERIS_TYPE": 0, "CLASSIFICATION_TYPE": "U", "NORAD_CAT_ID": 34026, "ELEMENT_SET_NO": 999, "REV_AT_EPOCH": 83685, "BSTAR": 0.00041680513, "MEAN_MOTION_DOT": 4.92e-06, "MEAN_MOTION_DDOT": 0}, "tle": {"line1": "1 34026U 93036HM  25357.97280490  .00000492  00000+0  41681-3 0  9994", "line2": "2 34026  73.7667 318.6056 0349657 186.8963 234.9942 13.65321922836854"}}, "geometry": {"type": "Point", "coordinates": [-56.33381724887953, -40.6550039244575]}}, {"type": "Feature", "properties": {"norad_id": 34028, "name": "COSMOS 2251 DEB", "group": "cosmos-2251-debris", "lat": -70.38256268250544, "lon": -84.59403703465382, "alt_km": 1599.022906249511, "timestamp": "2025-12-24T05:51:20.002975+00:00", "meta": {"OBJECT_NAME": "COSMOS 2251 DEB", "OBJECT_ID": "1993-036HP", "EPOCH": "2025-12-23T09:14:23.167968", "MEAN_MOTION": 13.20631755, "ECCENTRICITY": 0.05434871, "INCLINATION": 73.8837, "RA_OF_ASC_NODE": 330.9297, "ARG_OF_PERICENTER": 106.9461, "MEAN_ANOMALY": 51.5126, "EPHEMERIS_TYPE": 0, "CLASSIFICATION_TYPE": "U", "NORAD_CAT_ID": 34028, "ELEMENT_SET_NO": 999, "REV_AT_EPOCH": 81148, "BSTAR": 0.00042853102, "MEAN_MOTION_DOT": 3.62e-06, "MEAN_MOTION_DDOT": 0}, "tle": {"line1": "1 34028U 93036HP  25357.38499037  .00000362  00000+0  42853-3 0  9998", "line2": "2 34028  73.8837 330.9297 0543487 106.9461  51.5126 13.20631755811481"}}, "geometry": {"type": "Point", "coordinates": [-84.59403703465382, -70.38256268250544]}}]}